{
  "type": "FeatureCollection",
  "generator": "overpass-turbo",
  "copyright": "The data included in this document is from www.openstreetmap.org. The data is made available under ODbL.",
  "timestamp": "2026-03-30T05:02:46Z",
  "features": [
    {
      "type": "Feature",
      "properties": {
        "@id": "way/443826814",
        "building": "yes"
      },
      "geometry": {
        "type": "Polygon",
        "coordinates": [
          [
            [
              77.1881727,
              32.2442749
            ],
            [
              77.1881607,
              32.2441377
            ],
            [
              77.1882918,
              32.2441294
            ],
            [
              77.1883038,
              32.2442667
            ],
            [
              77.1881727,
              32.2442749
            ]
          ]
        ]
      },
      "id": "way/443826814"
    },
    {
      "type": "Feature",
      "properties": {
        "@id": "way/443826815",
        "building": "yes"
      },
      "geometry": {
        "type": "Polygon",
        "coordinates": [
          [
            [
              77.1889197,
              32.2443951
            ],
            [
              77.1887888,
              32.2443668
            ],
            [
              77.1888196,
              32.2442648
            ],
            [
              77.1889506,
              32.2442931
            ],
            [
              77.1889197,
              32.2443951
            ]
          ]
        ]
      },
      "id": "way/443826815"
    },
    {
      "type": "Feature",
      "properties": {
        "@id": "way/443826818",
        "building": "yes"
      },
      "geometry": {
        "type": "Polygon",
        "coordinates": [
          [
            [
              77.1881768,
              32.2443192
            ],
            [
              77.1882854,
              32.2443157
            ],
            [
              77.1882891,
              32.2443997
            ],
            [
              77.1881804,
              32.2444031
            ],
            [
              77.1881768,
              32.2443192
            ]
          ]
        ]
      },
      "id": "way/443826818"
    },
    {
      "type": "Feature",
      "properties": {
        "@id": "way/443826820",
        "building": "yes"
      },
      "geometry": {
        "type": "Polygon",
        "coordinates": [
          [
            [
              77.1881768,
              32.2440333
            ],
            [
              77.1884329,
              32.2440775
            ],
            [
              77.1884176,
              32.2441408
            ],
            [
              77.1881615,
              32.2440965
            ],
            [
              77.1881768,
              32.2440333
            ]
          ]
        ]
      },
      "id": "way/443826820"
    },
    {
      "type": "Feature",
      "properties": {
        "@id": "way/443826821",
        "building": "yes"
      },
      "geometry": {
        "type": "Polygon",
        "coordinates": [
          [
            [
              77.1881553,
              32.244571
            ],
            [
              77.1881566,
              32.2444088
            ],
            [
              77.1883055,
              32.2444096
            ],
            [
              77.1883042,
              32.2445718
            ],
            [
              77.1881553,
              32.244571
            ]
          ]
        ]
      },
      "id": "way/443826821"
    },
    {
      "type": "Feature",
      "properties": {
        "@id": "way/443826822",
        "building": "yes"
      },
      "geometry": {
        "type": "Polygon",
        "coordinates": [
          [
            [
              77.1885509,
              32.2440821
            ],
            [
              77.1887521,
              32.2441172
            ],
            [
              77.1887337,
              32.2441927
            ],
            [
              77.1885325,
              32.2441575
            ],
            [
              77.1885509,
              32.2440821
            ]
          ]
        ]
      },
      "id": "way/443826822"
    },
    {
      "type": "Feature",
      "properties": {
        "@id": "way/443826823",
        "building": "yes"
      },
      "geometry": {
        "type": "Polygon",
        "coordinates": [
          [
            [
              77.1890163,
              32.2440639
            ],
            [
              77.1889848,
              32.2442347
            ],
            [
              77.1887609,
              32.2442052
            ],
            [
              77.1887923,
              32.2440344
            ],
            [
              77.1890163,
              32.2440639
            ]
          ]
        ]
      },
      "id": "way/443826823"
    },
    {
      "type": "Feature",
      "properties": {
        "@id": "way/443826824",
        "building": "yes"
      },
      "geometry": {
        "type": "Polygon",
        "coordinates": [
          [
            [
              77.1876872,
              32.2443736
            ],
            [
              77.1876229,
              32.2440537
            ],
            [
              77.1877707,
              32.2440324
            ],
            [
              77.1878351,
              32.2443523
            ],
            [
              77.1876872,
              32.2443736
            ]
          ]
        ]
      },
      "id": "way/443826824"
    },
    {
      "type": "Feature",
      "properties": {
        "@id": "way/443826826",
        "building": "yes"
      },
      "geometry": {
        "type": "Polygon",
        "coordinates": [
          [
            [
              77.1889492,
              32.2446662
            ],
            [
              77.1888382,
              32.2446705
            ],
            [
              77.1888352,
              32.2446153
            ],
            [
              77.1888281,
              32.2446156
            ],
            [
              77.1888174,
              32.2444137
            ],
            [
              77.1888875,
              32.244411
            ],
            [
              77.1888969,
              32.2445878
            ],
            [
              77.188945,
              32.244586
            ],
            [
              77.1889492,
              32.2446662
            ]
          ]
        ]
      },
      "id": "way/443826826"
    },
    {
      "type": "Feature",
      "properties": {
        "@id": "way/444518686",
        "building": "yes"
      },
      "geometry": {
        "type": "Polygon",
        "coordinates": [
          [
            [
              77.1899691,
              32.2450296
            ],
            [
              77.1900338,
              32.2451899
            ],
            [
              77.1898739,
              32.2452361
            ],
            [
              77.1898092,
              32.2450758
            ],
            [
              77.1899691,
              32.2450296
            ]
          ]
        ]
      },
      "id": "way/444518686"
    },
    {
      "type": "Feature",
      "properties": {
        "@id": "way/444518688",
        "building": "yes"
      },
      "geometry": {
        "type": "Polygon",
        "coordinates": [
          [
            [
              77.1885459,
              32.245362
            ],
            [
              77.1889509,
              32.245404
            ],
            [
              77.1889409,
              32.2454728
            ],
            [
              77.1885359,
              32.2454309
            ],
            [
              77.1885459,
              32.245362
            ]
          ]
        ]
      },
      "id": "way/444518688"
    },
    {
      "type": "Feature",
      "properties": {
        "@id": "way/444518689",
        "building": "yes"
      },
      "geometry": {
        "type": "Polygon",
        "coordinates": [
          [
            [
              77.1884326,
              32.2444432
            ],
            [
              77.1884135,
              32.2445253
            ],
            [
              77.1883461,
              32.2445141
            ],
            [
              77.1883652,
              32.244432
            ],
            [
              77.1884326,
              32.2444432
            ]
          ]
        ]
      },
      "id": "way/444518689"
    },
    {
      "type": "Feature",
      "properties": {
        "@id": "way/444518690",
        "building": "yes"
      },
      "geometry": {
        "type": "Polygon",
        "coordinates": [
          [
            [
              77.1892359,
              32.2449298
            ],
            [
              77.1892528,
              32.2450375
            ],
            [
              77.1890074,
              32.2450567
            ],
            [
              77.1889864,
              32.2449763
            ],
            [
              77.1892359,
              32.2449298
            ]
          ]
        ]
      },
      "id": "way/444518690"
    },
    {
      "type": "Feature",
      "properties": {
        "@id": "way/444518691",
        "building": "yes"
      },
      "geometry": {
        "type": "Polygon",
        "coordinates": [
          [
            [
              77.1894149,
              32.2452208
            ],
            [
              77.1895762,
              32.2452128
            ],
            [
              77.1895851,
              32.2453424
            ],
            [
              77.1894238,
              32.2453503
            ],
            [
              77.1894149,
              32.2452208
            ]
          ]
        ]
      },
      "id": "way/444518691"
    },
    {
      "type": "Feature",
      "properties": {
        "@id": "way/444518700",
        "building": "yes"
      },
      "geometry": {
        "type": "Polygon",
        "coordinates": [
          [
            [
              77.1891407,
              32.2455106
            ],
            [
              77.18926,
              32.2454992
            ],
            [
              77.1892694,
              32.2455695
            ],
            [
              77.18915,
              32.2455808
            ],
            [
              77.1891407,
              32.2455106
            ]
          ]
        ]
      },
      "id": "way/444518700"
    },
    {
      "type": "Feature",
      "properties": {
        "@id": "way/444518701",
        "building": "yes"
      },
      "geometry": {
        "type": "Polygon",
        "coordinates": [
          [
            [
              77.18948,
              32.2450206
            ],
            [
              77.1894814,
              32.2449825
            ],
            [
              77.1895646,
              32.2449848
            ],
            [
              77.1895631,
              32.2450228
            ],
            [
              77.18948,
              32.2450206
            ]
          ]
        ]
      },
      "id": "way/444518701"
    },
    {
      "type": "Feature",
      "properties": {
        "@id": "way/444518702",
        "building": "yes"
      },
      "geometry": {
        "type": "Polygon",
        "coordinates": [
          [
            [
              77.1893013,
              32.2455662
            ],
            [
              77.1892758,
              32.2454607
            ],
            [
              77.1893931,
              32.2454561
            ],
            [
              77.1894132,
              32.2455468
            ],
            [
              77.1893013,
              32.2455662
            ]
          ]
        ]
      },
      "id": "way/444518702"
    },
    {
      "type": "Feature",
      "properties": {
        "@id": "way/444518703",
        "building": "yes"
      },
      "geometry": {
        "type": "Polygon",
        "coordinates": [
          [
            [
              77.1890092,
              32.2439844
            ],
            [
              77.1886847,
              32.2439969
            ],
            [
              77.1886813,
              32.2439332
            ],
            [
              77.1890058,
              32.2439207
            ],
            [
              77.1890092,
              32.2439844
            ]
          ]
        ]
      },
      "id": "way/444518703"
    },
    {
      "type": "Feature",
      "properties": {
        "@id": "way/444518705",
        "building": "yes"
      },
      "geometry": {
        "type": "Polygon",
        "coordinates": [
          [
            [
              77.1898954,
              32.2453586
            ],
            [
              77.1900275,
              32.2453238
            ],
            [
              77.1900785,
              32.2454622
            ],
            [
              77.1899463,
              32.245497
            ],
            [
              77.1898954,
              32.2453586
            ]
          ]
        ]
      },
      "id": "way/444518705"
    },
    {
      "type": "Feature",
      "properties": {
        "@id": "way/444518706",
        "building": "yes"
      },
      "geometry": {
        "type": "Polygon",
        "coordinates": [
          [
            [
              77.1894055,
              32.2447977
            ],
            [
              77.1895476,
              32.2447923
            ],
            [
              77.1895561,
              32.2449535
            ],
            [
              77.1894141,
              32.2449589
            ],
            [
              77.1894055,
              32.2447977
            ]
          ]
        ]
      },
      "id": "way/444518706"
    },
    {
      "type": "Feature",
      "properties": {
        "@id": "way/444518711",
        "building": "yes"
      },
      "geometry": {
        "type": "Polygon",
        "coordinates": [
          [
            [
              77.1894055,
              32.2447977
            ],
            [
              77.1893975,
              32.2446457
            ],
            [
              77.1895396,
              32.2446403
            ],
            [
              77.1895476,
              32.2447923
            ],
            [
              77.1894055,
              32.2447977
            ]
          ]
        ]
      },
      "id": "way/444518711"
    },
    {
      "type": "Feature",
      "properties": {
        "@id": "way/444518713",
        "building": "yes"
      },
      "geometry": {
        "type": "Polygon",
        "coordinates": [
          [
            [
              77.189146,
              32.2448799
            ],
            [
              77.1891206,
              32.2447676
            ],
            [
              77.1892203,
              32.2447514
            ],
            [
              77.1892458,
              32.2448637
            ],
            [
              77.189146,
              32.2448799
            ]
          ]
        ]
      },
      "id": "way/444518713"
    },
    {
      "type": "Feature",
      "properties": {
        "@id": "way/444518714",
        "building": "yes"
      },
      "geometry": {
        "type": "Polygon",
        "coordinates": [
          [
            [
              77.1893646,
              32.2448765
            ],
            [
              77.189374,
              32.2450387
            ],
            [
              77.1892671,
              32.2450432
            ],
            [
              77.1892577,
              32.244881
            ],
            [
              77.1893646,
              32.2448765
            ]
          ]
        ]
      },
      "id": "way/444518714"
    },
    {
      "type": "Feature",
      "properties": {
        "@id": "way/444518715",
        "building": "yes"
      },
      "geometry": {
        "type": "Polygon",
        "coordinates": [
          [
            [
              77.1903111,
              32.2451204
            ],
            [
              77.1903528,
              32.2452235
            ],
            [
              77.1899679,
              32.2453347
            ],
            [
              77.1899262,
              32.2452315
            ],
            [
              77.1903111,
              32.2451204
            ]
          ]
        ]
      },
      "id": "way/444518715"
    },
    {
      "type": "Feature",
      "properties": {
        "@id": "way/444518717",
        "building": "yes"
      },
      "geometry": {
        "type": "Polygon",
        "coordinates": [
          [
            [
              77.1886183,
              32.2446134
            ],
            [
              77.188332,
              32.2445657
            ],
            [
              77.1883428,
              32.2445191
            ],
            [
              77.1886292,
              32.2445667
            ],
            [
              77.1886183,
              32.2446134
            ]
          ]
        ]
      },
      "id": "way/444518717"
    },
    {
      "type": "Feature",
      "properties": {
        "@id": "way/444518725",
        "building": "yes"
      },
      "geometry": {
        "type": "Polygon",
        "coordinates": [
          [
            [
              77.189032,
              32.2449366
            ],
            [
              77.1890052,
              32.2448062
            ],
            [
              77.1891117,
              32.2447905
            ],
            [
              77.1891386,
              32.244921
            ],
            [
              77.189032,
              32.2449366
            ]
          ]
        ]
      },
      "id": "way/444518725"
    },
    {
      "type": "Feature",
      "properties": {
        "@id": "way/444518728",
        "building": "yes"
      },
      "geometry": {
        "type": "Polygon",
        "coordinates": [
          [
            [
              77.1894156,
              32.2451703
            ],
            [
              77.1894035,
              32.2450002
            ],
            [
              77.18946,
              32.2449973
            ],
            [
              77.189472,
              32.2451674
            ],
            [
              77.1894156,
              32.2451703
            ]
          ]
        ]
      },
      "id": "way/444518728"
    },
    {
      "type": "Feature",
      "properties": {
        "@id": "way/444518732",
        "building": "yes"
      },
      "geometry": {
        "type": "Polygon",
        "coordinates": [
          [
            [
              77.18902,
              32.2451578
            ],
            [
              77.1890123,
              32.2450743
            ],
            [
              77.1891561,
              32.2450648
            ],
            [
              77.1891638,
              32.2451483
            ],
            [
              77.1892426,
              32.2451431
            ],
            [
              77.18925,
              32.2452225
            ],
            [
              77.1890273,
              32.2452372
            ],
            [
              77.18902,
              32.2451578
            ]
          ]
        ]
      },
      "id": "way/444518732"
    },
    {
      "type": "Feature",
      "properties": {
        "@id": "way/900573226",
        "building": "yes"
      },
      "geometry": {
        "type": "Polygon",
        "coordinates": [
          [
            [
              77.1885037,
              32.2447978
            ],
            [
              77.1883294,
              32.2447774
            ],
            [
              77.1883508,
              32.2446467
            ],
            [
              77.1885251,
              32.2446671
            ],
            [
              77.1885037,
              32.2447978
            ]
          ]
        ]
      },
      "id": "way/900573226"
    },
    {
      "type": "Feature",
      "properties": {
        "@id": "way/900573227",
        "building": "yes"
      },
      "geometry": {
        "type": "Polygon",
        "coordinates": [
          [
            [
              77.1882945,
              32.2449793
            ],
            [
              77.1884742,
              32.245011
            ],
            [
              77.1884218,
              32.2452231
            ],
            [
              77.1882421,
              32.2451913
            ],
            [
              77.1882945,
              32.2449793
            ]
          ]
        ]
      },
      "id": "way/900573227"
    },
    {
      "type": "Feature",
      "properties": {
        "@id": "way/900573228",
        "building": "yes"
      },
      "geometry": {
        "type": "Polygon",
        "coordinates": [
          [
            [
              77.1886083,
              32.2451607
            ],
            [
              77.1887202,
              32.2451669
            ],
            [
              77.1887068,
              32.2453416
            ],
            [
              77.1885949,
              32.2453354
            ],
            [
              77.1886083,
              32.2451607
            ]
          ]
        ]
      },
      "id": "way/900573228"
    },
    {
      "type": "Feature",
      "properties": {
        "@id": "way/900573229",
        "building": "yes"
      },
      "geometry": {
        "type": "Polygon",
        "coordinates": [
          [
            [
              77.1887907,
              32.2452651
            ],
            [
              77.1889141,
              32.2452696
            ],
            [
              77.1889089,
              32.2453716
            ],
            [
              77.1887855,
              32.2453671
            ],
            [
              77.1887907,
              32.2452651
            ]
          ]
        ]
      },
      "id": "way/900573229"
    },
    {
      "type": "Feature",
      "properties": {
        "@id": "way/900573230",
        "building": "yes"
      },
      "geometry": {
        "type": "Polygon",
        "coordinates": [
          [
            [
              77.1886593,
              32.2449725
            ],
            [
              77.1887521,
              32.244977
            ],
            [
              77.1887414,
              32.2451335
            ],
            [
              77.1886486,
              32.245129
            ],
            [
              77.1886593,
              32.2449725
            ]
          ]
        ]
      },
      "id": "way/900573230"
    },
    {
      "type": "Feature",
      "properties": {
        "@id": "way/900573231",
        "building": "yes"
      },
      "geometry": {
        "type": "Polygon",
        "coordinates": [
          [
            [
              77.1887827,
              32.2449157
            ],
            [
              77.1889184,
              32.2449199
            ],
            [
              77.1889104,
              32.2451082
            ],
            [
              77.1887746,
              32.245104
            ],
            [
              77.1887827,
              32.2449157
            ]
          ]
        ]
      },
      "id": "way/900573231"
    },
    {
      "type": "Feature",
      "properties": {
        "@id": "way/900573247",
        "building": "yes"
      },
      "geometry": {
        "type": "Polygon",
        "coordinates": [
          [
            [
              77.1880022,
              32.2449883
            ],
            [
              77.1880089,
              32.2450768
            ],
            [
              77.1879473,
              32.2450801
            ],
            [
              77.1879406,
              32.2449917
            ],
            [
              77.1880022,
              32.2449883
            ]
          ]
        ]
      },
      "id": "way/900573247"
    },
    {
      "type": "Feature",
      "properties": {
        "@id": "way/900573248",
        "building": "yes"
      },
      "geometry": {
        "type": "Polygon",
        "coordinates": [
          [
            [
              77.1880062,
              32.2451778
            ],
            [
              77.1880156,
              32.245357
            ],
            [
              77.1879567,
              32.2453592
            ],
            [
              77.1879125,
              32.2453186
            ],
            [
              77.1879053,
              32.2451815
            ],
            [
              77.1880062,
              32.2451778
            ]
          ]
        ]
      },
      "id": "way/900573248"
    },
    {
      "type": "Feature",
      "properties": {
        "@id": "way/900573264",
        "building": "yes"
      },
      "geometry": {
        "type": "Polygon",
        "coordinates": [
          [
            [
              77.18786,
              32.2446526
            ],
            [
              77.1878278,
              32.2445777
            ],
            [
              77.1879172,
              32.2445502
            ],
            [
              77.1879494,
              32.2446251
            ],
            [
              77.18786,
              32.2446526
            ]
          ]
        ]
      },
      "id": "way/900573264"
    },
    {
      "type": "Feature",
      "properties": {
        "@id": "way/900573269",
        "building": "yes"
      },
      "geometry": {
        "type": "Polygon",
        "coordinates": [
          [
            [
              77.1878707,
              32.2452379
            ],
            [
              77.1877071,
              32.2452492
            ],
            [
              77.1876949,
              32.2451202
            ],
            [
              77.1878582,
              32.2451089
            ],
            [
              77.1878707,
              32.2452379
            ]
          ]
        ]
      },
      "id": "way/900573269"
    },
    {
      "type": "Feature",
      "properties": {
        "@id": "way/900573271",
        "building": "yes"
      },
      "geometry": {
        "type": "Polygon",
        "coordinates": [
          [
            [
              77.1879137,
              32.2449067
            ],
            [
              77.1879319,
              32.2450391
            ],
            [
              77.187771,
              32.245055
            ],
            [
              77.1877527,
              32.2449225
            ],
            [
              77.1879137,
              32.2449067
            ]
          ]
        ]
      },
      "id": "way/900573271"
    },
    {
      "type": "Feature",
      "properties": {
        "@id": "way/900573272",
        "building": "yes"
      },
      "geometry": {
        "type": "Polygon",
        "coordinates": [
          [
            [
              77.1877769,
              32.2447138
            ],
            [
              77.1879154,
              32.2446962
            ],
            [
              77.1879449,
              32.2448618
            ],
            [
              77.1878064,
              32.2448794
            ],
            [
              77.1877769,
              32.2447138
            ]
          ]
        ]
      },
      "id": "way/900573272"
    }
  ]
}