{
  "type": "FeatureCollection",
  "generator": "overpass-turbo",
  "copyright": "The data included in this document is from www.openstreetmap.org. The data is made available under ODbL.",
  "timestamp": "2026-03-18T18:01:36Z",
  "features": [
    {
      "type": "Feature",
      "properties": {
        "@id": "node/1368372728"
      },
      "geometry": {
        "type": "Point",
        "coordinates": [
          75.5722508,
          31.3200483
        ]
      },
      "id": "node/1368372728"
    },
    {
      "type": "Feature",
      "properties": {
        "@id": "node/1368372768"
      },
      "geometry": {
        "type": "Point",
        "coordinates": [
          75.5724095,
          31.3214353
        ]
      },
      "id": "node/1368372768"
    },
    {
      "type": "Feature",
      "properties": {
        "@id": "node/1368372779"
      },
      "geometry": {
        "type": "Point",
        "coordinates": [
          75.5724694,
          31.3216861
        ]
      },
      "id": "node/1368372779"
    },
    {
      "type": "Feature",
      "properties": {
        "@id": "node/1368372811"
      },
      "geometry": {
        "type": "Point",
        "coordinates": [
          75.5726851,
          31.3220213
        ]
      },
      "id": "node/1368372811"
    },
    {
      "type": "Feature",
      "properties": {
        "@id": "node/1368372951"
      },
      "geometry": {
        "type": "Point",
        "coordinates": [
          75.5745305,
          31.3243271
        ]
      },
      "id": "node/1368372951"
    },
    {
      "type": "Feature",
      "properties": {
        "@id": "node/1369477089"
      },
      "geometry": {
        "type": "Point",
        "coordinates": [
          75.5705924,
          31.3200965
        ]
      },
      "id": "node/1369477089"
    },
    {
      "type": "Feature",
      "properties": {
        "@id": "node/1369477092"
      },
      "geometry": {
        "type": "Point",
        "coordinates": [
          75.572278,
          31.320286
        ]
      },
      "id": "node/1369477092"
    },
    {
      "type": "Feature",
      "properties": {
        "@id": "node/1369477093"
      },
      "geometry": {
        "type": "Point",
        "coordinates": [
          75.5716248,
          31.3203812
        ]
      },
      "id": "node/1369477093"
    },
    {
      "type": "Feature",
      "properties": {
        "@id": "node/1369477094"
      },
      "geometry": {
        "type": "Point",
        "coordinates": [
          75.5701602,
          31.3203947
        ]
      },
      "id": "node/1369477094"
    },
    {
      "type": "Feature",
      "properties": {
        "@id": "node/1369477095"
      },
      "geometry": {
        "type": "Point",
        "coordinates": [
          75.571516,
          31.3204017
        ]
      },
      "id": "node/1369477095"
    },
    {
      "type": "Feature",
      "properties": {
        "@id": "node/1369477099"
      },
      "geometry": {
        "type": "Point",
        "coordinates": [
          75.5711874,
          31.3204556
        ]
      },
      "id": "node/1369477099"
    },
    {
      "type": "Feature",
      "properties": {
        "@id": "node/1369477100"
      },
      "geometry": {
        "type": "Point",
        "coordinates": [
          75.571123,
          31.3204716
        ]
      },
      "id": "node/1369477100"
    },
    {
      "type": "Feature",
      "properties": {
        "@id": "node/1369477101"
      },
      "geometry": {
        "type": "Point",
        "coordinates": [
          75.5710078,
          31.3204974
        ]
      },
      "id": "node/1369477101"
    },
    {
      "type": "Feature",
      "properties": {
        "@id": "node/1369477105"
      },
      "geometry": {
        "type": "Point",
        "coordinates": [
          75.5706416,
          31.3206838
        ]
      },
      "id": "node/1369477105"
    },
    {
      "type": "Feature",
      "properties": {
        "@id": "node/1369477110"
      },
      "geometry": {
        "type": "Point",
        "coordinates": [
          75.5700397,
          31.3209455
        ]
      },
      "id": "node/1369477110"
    },
    {
      "type": "Feature",
      "properties": {
        "@id": "node/1369477111"
      },
      "geometry": {
        "type": "Point",
        "coordinates": [
          75.5712229,
          31.3210347
        ]
      },
      "id": "node/1369477111"
    },
    {
      "type": "Feature",
      "properties": {
        "@id": "node/1369477112"
      },
      "geometry": {
        "type": "Point",
        "coordinates": [
          75.5713208,
          31.3211699
        ]
      },
      "id": "node/1369477112"
    },
    {
      "type": "Feature",
      "properties": {
        "@id": "node/1369477114"
      },
      "geometry": {
        "type": "Point",
        "coordinates": [
          75.5724052,
          31.3213978
        ]
      },
      "id": "node/1369477114"
    },
    {
      "type": "Feature",
      "properties": {
        "@id": "node/1369477116"
      },
      "geometry": {
        "type": "Point",
        "coordinates": [
          75.570842,
          31.321477
        ]
      },
      "id": "node/1369477116"
    },
    {
      "type": "Feature",
      "properties": {
        "@id": "node/1369477118"
      },
      "geometry": {
        "type": "Point",
        "coordinates": [
          75.5716049,
          31.3215116
        ]
      },
      "id": "node/1369477118"
    },
    {
      "type": "Feature",
      "properties": {
        "@id": "node/1369477119"
      },
      "geometry": {
        "type": "Point",
        "coordinates": [
          75.5714245,
          31.3215373
        ]
      },
      "id": "node/1369477119"
    },
    {
      "type": "Feature",
      "properties": {
        "@id": "node/1369477120"
      },
      "geometry": {
        "type": "Point",
        "coordinates": [
          75.5712932,
          31.3215559
        ]
      },
      "id": "node/1369477120"
    },
    {
      "type": "Feature",
      "properties": {
        "@id": "node/1369477121"
      },
      "geometry": {
        "type": "Point",
        "coordinates": [
          75.5710023,
          31.3215537
        ]
      },
      "id": "node/1369477121"
    },
    {
      "type": "Feature",
      "properties": {
        "@id": "node/1369477123"
      },
      "geometry": {
        "type": "Point",
        "coordinates": [
          75.5724633,
          31.3216603
        ]
      },
      "id": "node/1369477123"
    },
    {
      "type": "Feature",
      "properties": {
        "@id": "node/1369477126"
      },
      "geometry": {
        "type": "Point",
        "coordinates": [
          75.5718999,
          31.3218402
        ]
      },
      "id": "node/1369477126"
    },
    {
      "type": "Feature",
      "properties": {
        "@id": "node/1369477129"
      },
      "geometry": {
        "type": "Point",
        "coordinates": [
          75.5700856,
          31.32186
        ]
      },
      "id": "node/1369477129"
    },
    {
      "type": "Feature",
      "properties": {
        "@id": "node/1369477131"
      },
      "geometry": {
        "type": "Point",
        "coordinates": [
          75.570135,
          31.3219266
        ]
      },
      "id": "node/1369477131"
    },
    {
      "type": "Feature",
      "properties": {
        "@id": "node/1369477132"
      },
      "geometry": {
        "type": "Point",
        "coordinates": [
          75.5713719,
          31.3219495
        ]
      },
      "id": "node/1369477132"
    },
    {
      "type": "Feature",
      "properties": {
        "@id": "node/1369477138"
      },
      "geometry": {
        "type": "Point",
        "coordinates": [
          75.571408,
          31.3223929
        ]
      },
      "id": "node/1369477138"
    },
    {
      "type": "Feature",
      "properties": {
        "@id": "node/1369477143"
      },
      "geometry": {
        "type": "Point",
        "coordinates": [
          75.5724581,
          31.3224244
        ]
      },
      "id": "node/1369477143"
    },
    {
      "type": "Feature",
      "properties": {
        "@id": "node/1369477147"
      },
      "geometry": {
        "type": "Point",
        "coordinates": [
          75.5710632,
          31.3226504
        ]
      },
      "id": "node/1369477147"
    },
    {
      "type": "Feature",
      "properties": {
        "@id": "node/1369477151"
      },
      "geometry": {
        "type": "Point",
        "coordinates": [
          75.572859,
          31.3227933
        ]
      },
      "id": "node/1369477151"
    },
    {
      "type": "Feature",
      "properties": {
        "@id": "node/1369477153"
      },
      "geometry": {
        "type": "Point",
        "coordinates": [
          75.5726656,
          31.3232588
        ]
      },
      "id": "node/1369477153"
    },
    {
      "type": "Feature",
      "properties": {
        "@id": "node/1369477155"
      },
      "geometry": {
        "type": "Point",
        "coordinates": [
          75.5719042,
          31.3229125
        ]
      },
      "id": "node/1369477155"
    },
    {
      "type": "Feature",
      "properties": {
        "@id": "node/1369477156"
      },
      "geometry": {
        "type": "Point",
        "coordinates": [
          75.5711057,
          31.322929
        ]
      },
      "id": "node/1369477156"
    },
    {
      "type": "Feature",
      "properties": {
        "@id": "node/1369477157"
      },
      "geometry": {
        "type": "Point",
        "coordinates": [
          75.5734321,
          31.3229547
        ]
      },
      "id": "node/1369477157"
    },
    {
      "type": "Feature",
      "properties": {
        "@id": "node/1369477161"
      },
      "geometry": {
        "type": "Point",
        "coordinates": [
          75.5702733,
          31.3230288
        ]
      },
      "id": "node/1369477161"
    },
    {
      "type": "Feature",
      "properties": {
        "@id": "node/1369477162"
      },
      "geometry": {
        "type": "Point",
        "coordinates": [
          75.5711243,
          31.3230505
        ]
      },
      "id": "node/1369477162"
    },
    {
      "type": "Feature",
      "properties": {
        "@id": "node/1369477164"
      },
      "geometry": {
        "type": "Point",
        "coordinates": [
          75.5711394,
          31.3231495
        ]
      },
      "id": "node/1369477164"
    },
    {
      "type": "Feature",
      "properties": {
        "@id": "node/1369477169"
      },
      "geometry": {
        "type": "Point",
        "coordinates": [
          75.5711806,
          31.3233636
        ]
      },
      "id": "node/1369477169"
    },
    {
      "type": "Feature",
      "properties": {
        "@id": "node/1369477171"
      },
      "geometry": {
        "type": "Point",
        "coordinates": [
          75.572336,
          31.3233667
        ]
      },
      "id": "node/1369477171"
    },
    {
      "type": "Feature",
      "properties": {
        "@id": "node/1369477173"
      },
      "geometry": {
        "type": "Point",
        "coordinates": [
          75.5720346,
          31.323441
        ]
      },
      "id": "node/1369477173"
    },
    {
      "type": "Feature",
      "properties": {
        "@id": "node/1369477179"
      },
      "geometry": {
        "type": "Point",
        "coordinates": [
          75.5718759,
          31.3235256
        ]
      },
      "id": "node/1369477179"
    },
    {
      "type": "Feature",
      "properties": {
        "@id": "node/1369477180"
      },
      "geometry": {
        "type": "Point",
        "coordinates": [
          75.5712494,
          31.3235389
        ]
      },
      "id": "node/1369477180"
    },
    {
      "type": "Feature",
      "properties": {
        "@id": "node/1369477181"
      },
      "geometry": {
        "type": "Point",
        "coordinates": [
          75.5713478,
          31.3235502
        ]
      },
      "id": "node/1369477181"
    },
    {
      "type": "Feature",
      "properties": {
        "@id": "node/1369477182"
      },
      "geometry": {
        "type": "Point",
        "coordinates": [
          75.5711904,
          31.3235756
        ]
      },
      "id": "node/1369477182"
    },
    {
      "type": "Feature",
      "properties": {
        "@id": "node/1369477183"
      },
      "geometry": {
        "type": "Point",
        "coordinates": [
          75.5713801,
          31.3235771
        ]
      },
      "id": "node/1369477183"
    },
    {
      "type": "Feature",
      "properties": {
        "@id": "node/1369477184"
      },
      "geometry": {
        "type": "Point",
        "coordinates": [
          75.5713959,
          31.3236053
        ]
      },
      "id": "node/1369477184"
    },
    {
      "type": "Feature",
      "properties": {
        "@id": "node/1369477185"
      },
      "geometry": {
        "type": "Point",
        "coordinates": [
          75.5711729,
          31.3236068
        ]
      },
      "id": "node/1369477185"
    },
    {
      "type": "Feature",
      "properties": {
        "@id": "node/1369477186"
      },
      "geometry": {
        "type": "Point",
        "coordinates": [
          75.5713992,
          31.3236176
        ]
      },
      "id": "node/1369477186"
    },
    {
      "type": "Feature",
      "properties": {
        "@id": "node/1369477191"
      },
      "geometry": {
        "type": "Point",
        "coordinates": [
          75.5711696,
          31.3236207
        ]
      },
      "id": "node/1369477191"
    },
    {
      "type": "Feature",
      "properties": {
        "@id": "node/1369477194"
      },
      "geometry": {
        "type": "Point",
        "coordinates": [
          75.5713975,
          31.3236564
        ]
      },
      "id": "node/1369477194"
    },
    {
      "type": "Feature",
      "properties": {
        "@id": "node/1369477195"
      },
      "geometry": {
        "type": "Point",
        "coordinates": [
          75.5711747,
          31.3236648
        ]
      },
      "id": "node/1369477195"
    },
    {
      "type": "Feature",
      "properties": {
        "@id": "node/1369477196"
      },
      "geometry": {
        "type": "Point",
        "coordinates": [
          75.5713735,
          31.323697
        ]
      },
      "id": "node/1369477196"
    },
    {
      "type": "Feature",
      "properties": {
        "@id": "node/1369477197"
      },
      "geometry": {
        "type": "Point",
        "coordinates": [
          75.5712029,
          31.3237035
        ]
      },
      "id": "node/1369477197"
    },
    {
      "type": "Feature",
      "properties": {
        "@id": "node/1369477198"
      },
      "geometry": {
        "type": "Point",
        "coordinates": [
          75.5713516,
          31.3237142
        ]
      },
      "id": "node/1369477198"
    },
    {
      "type": "Feature",
      "properties": {
        "@id": "node/1369477199"
      },
      "geometry": {
        "type": "Point",
        "coordinates": [
          75.5712365,
          31.3237235
        ]
      },
      "id": "node/1369477199"
    },
    {
      "type": "Feature",
      "properties": {
        "@id": "node/1369477206"
      },
      "geometry": {
        "type": "Point",
        "coordinates": [
          75.5713061,
          31.3237307
        ]
      },
      "id": "node/1369477206"
    },
    {
      "type": "Feature",
      "properties": {
        "@id": "node/1369477210"
      },
      "geometry": {
        "type": "Point",
        "coordinates": [
          75.5700888,
          31.323752
        ]
      },
      "id": "node/1369477210"
    },
    {
      "type": "Feature",
      "properties": {
        "@id": "node/1369477241"
      },
      "geometry": {
        "type": "Point",
        "coordinates": [
          75.5747471,
          31.324604
        ]
      },
      "id": "node/1369477241"
    },
    {
      "type": "Feature",
      "properties": {
        "@id": "node/1369477258"
      },
      "geometry": {
        "type": "Point",
        "coordinates": [
          75.5725835,
          31.3249351
        ]
      },
      "id": "node/1369477258"
    },
    {
      "type": "Feature",
      "properties": {
        "@id": "node/1868366418"
      },
      "geometry": {
        "type": "Point",
        "coordinates": [
          75.5737297,
          31.320075
        ]
      },
      "id": "node/1868366418"
    },
    {
      "type": "Feature",
      "properties": {
        "@id": "node/1868366419"
      },
      "geometry": {
        "type": "Point",
        "coordinates": [
          75.5746837,
          31.3201086
        ]
      },
      "id": "node/1868366419"
    },
    {
      "type": "Feature",
      "properties": {
        "@id": "node/1868366420"
      },
      "geometry": {
        "type": "Point",
        "coordinates": [
          75.5732607,
          31.3201388
        ]
      },
      "id": "node/1868366420"
    },
    {
      "type": "Feature",
      "properties": {
        "@id": "node/1868366422"
      },
      "geometry": {
        "type": "Point",
        "coordinates": [
          75.5737359,
          31.3202225
        ]
      },
      "id": "node/1868366422"
    },
    {
      "type": "Feature",
      "properties": {
        "@id": "node/1868366423"
      },
      "geometry": {
        "type": "Point",
        "coordinates": [
          75.572283,
          31.3203216
        ]
      },
      "id": "node/1868366423"
    },
    {
      "type": "Feature",
      "properties": {
        "@id": "node/1868366424"
      },
      "geometry": {
        "type": "Point",
        "coordinates": [
          75.5737446,
          31.3204302
        ]
      },
      "id": "node/1868366424"
    },
    {
      "type": "Feature",
      "properties": {
        "@id": "node/1868366428"
      },
      "geometry": {
        "type": "Point",
        "coordinates": [
          75.5745309,
          31.3204918
        ]
      },
      "id": "node/1868366428"
    },
    {
      "type": "Feature",
      "properties": {
        "@id": "node/1868366430"
      },
      "geometry": {
        "type": "Point",
        "coordinates": [
          75.5737442,
          31.3206498
        ]
      },
      "id": "node/1868366430"
    },
    {
      "type": "Feature",
      "properties": {
        "@id": "node/1868366445"
      },
      "geometry": {
        "type": "Point",
        "coordinates": [
          75.5737495,
          31.3207357
        ]
      },
      "id": "node/1868366445"
    },
    {
      "type": "Feature",
      "properties": {
        "@id": "node/1868366447"
      },
      "geometry": {
        "type": "Point",
        "coordinates": [
          75.573771,
          31.3209545
        ]
      },
      "id": "node/1868366447"
    },
    {
      "type": "Feature",
      "properties": {
        "@id": "node/1868366451"
      },
      "geometry": {
        "type": "Point",
        "coordinates": [
          75.5723673,
          31.3210661
        ]
      },
      "id": "node/1868366451"
    },
    {
      "type": "Feature",
      "properties": {
        "@id": "node/1868366453"
      },
      "geometry": {
        "type": "Point",
        "coordinates": [
          75.5743376,
          31.3210699
        ]
      },
      "id": "node/1868366453"
    },
    {
      "type": "Feature",
      "properties": {
        "@id": "node/1868366456"
      },
      "geometry": {
        "type": "Point",
        "coordinates": [
          75.5737931,
          31.3210817
        ]
      },
      "id": "node/1868366456"
    },
    {
      "type": "Feature",
      "properties": {
        "@id": "node/1868366457"
      },
      "geometry": {
        "type": "Point",
        "coordinates": [
          75.5738173,
          31.3211608
        ]
      },
      "id": "node/1868366457"
    },
    {
      "type": "Feature",
      "properties": {
        "@id": "node/1868366460"
      },
      "geometry": {
        "type": "Point",
        "coordinates": [
          75.5739557,
          31.3214993
        ]
      },
      "id": "node/1868366460"
    },
    {
      "type": "Feature",
      "properties": {
        "@id": "node/1868366461"
      },
      "geometry": {
        "type": "Point",
        "coordinates": [
          75.5740003,
          31.3216173
        ]
      },
      "id": "node/1868366461"
    },
    {
      "type": "Feature",
      "properties": {
        "@id": "node/1868366463"
      },
      "geometry": {
        "type": "Point",
        "coordinates": [
          75.5741345,
          31.3219484
        ]
      },
      "id": "node/1868366463"
    },
    {
      "type": "Feature",
      "properties": {
        "@id": "node/1868366464"
      },
      "geometry": {
        "type": "Point",
        "coordinates": [
          75.5741535,
          31.3219983
        ]
      },
      "id": "node/1868366464"
    },
    {
      "type": "Feature",
      "properties": {
        "@id": "node/1868366465"
      },
      "geometry": {
        "type": "Point",
        "coordinates": [
          75.5742972,
          31.3222006
        ]
      },
      "id": "node/1868366465"
    },
    {
      "type": "Feature",
      "properties": {
        "@id": "node/1868366466"
      },
      "geometry": {
        "type": "Point",
        "coordinates": [
          75.5748881,
          31.3229215
        ]
      },
      "id": "node/1868366466"
    },
    {
      "type": "Feature",
      "properties": {
        "@id": "node/4227745828"
      },
      "geometry": {
        "type": "Point",
        "coordinates": [
          75.5729938,
          31.3216648
        ]
      },
      "id": "node/4227745828"
    },
    {
      "type": "Feature",
      "properties": {
        "@id": "node/4227745840"
      },
      "geometry": {
        "type": "Point",
        "coordinates": [
          75.5725642,
          31.3218334
        ]
      },
      "id": "node/4227745840"
    },
    {
      "type": "Feature",
      "properties": {
        "@id": "node/4227745846"
      },
      "geometry": {
        "type": "Point",
        "coordinates": [
          75.5716502,
          31.3218866
        ]
      },
      "id": "node/4227745846"
    },
    {
      "type": "Feature",
      "properties": {
        "@id": "node/4227745852"
      },
      "geometry": {
        "type": "Point",
        "coordinates": [
          75.5721445,
          31.3220994
        ]
      },
      "id": "node/4227745852"
    },
    {
      "type": "Feature",
      "properties": {
        "@id": "node/4227745857"
      },
      "geometry": {
        "type": "Point",
        "coordinates": [
          75.5734073,
          31.3221822
        ]
      },
      "id": "node/4227745857"
    },
    {
      "type": "Feature",
      "properties": {
        "@id": "node/4227745858"
      },
      "geometry": {
        "type": "Point",
        "coordinates": [
          75.5717322,
          31.3221935
        ]
      },
      "id": "node/4227745858"
    },
    {
      "type": "Feature",
      "properties": {
        "@id": "node/4227745872"
      },
      "geometry": {
        "type": "Point",
        "coordinates": [
          75.5729737,
          31.3223819
        ]
      },
      "id": "node/4227745872"
    },
    {
      "type": "Feature",
      "properties": {
        "@id": "node/4227745879"
      },
      "geometry": {
        "type": "Point",
        "coordinates": [
          75.5710191,
          31.322437
        ]
      },
      "id": "node/4227745879"
    },
    {
      "type": "Feature",
      "properties": {
        "@id": "node/4227745882"
      },
      "geometry": {
        "type": "Point",
        "coordinates": [
          75.5718235,
          31.3225352
        ]
      },
      "id": "node/4227745882"
    },
    {
      "type": "Feature",
      "properties": {
        "@id": "node/4227745894"
      },
      "geometry": {
        "type": "Point",
        "coordinates": [
          75.5741572,
          31.3228941
        ]
      },
      "id": "node/4227745894"
    },
    {
      "type": "Feature",
      "properties": {
        "@id": "node/4227745900"
      },
      "geometry": {
        "type": "Point",
        "coordinates": [
          75.5738992,
          31.3229897
        ]
      },
      "id": "node/4227745900"
    },
    {
      "type": "Feature",
      "properties": {
        "@id": "node/4227745903"
      },
      "geometry": {
        "type": "Point",
        "coordinates": [
          75.5735548,
          31.323108
        ]
      },
      "id": "node/4227745903"
    },
    {
      "type": "Feature",
      "properties": {
        "@id": "node/4227745911"
      },
      "geometry": {
        "type": "Point",
        "coordinates": [
          75.5735095,
          31.3235322
        ]
      },
      "id": "node/4227745911"
    },
    {
      "type": "Feature",
      "properties": {
        "@id": "node/4227745913"
      },
      "geometry": {
        "type": "Point",
        "coordinates": [
          75.5733687,
          31.3235151
        ]
      },
      "id": "node/4227745913"
    },
    {
      "type": "Feature",
      "properties": {
        "@id": "node/4227745915"
      },
      "geometry": {
        "type": "Point",
        "coordinates": [
          75.5730106,
          31.3236102
        ]
      },
      "id": "node/4227745915"
    },
    {
      "type": "Feature",
      "properties": {
        "@id": "node/4227745919"
      },
      "geometry": {
        "type": "Point",
        "coordinates": [
          75.5726308,
          31.323738
        ]
      },
      "id": "node/4227745919"
    },
    {
      "type": "Feature",
      "properties": {
        "@id": "node/4227745920"
      },
      "geometry": {
        "type": "Point",
        "coordinates": [
          75.5725517,
          31.3237597
        ]
      },
      "id": "node/4227745920"
    },
    {
      "type": "Feature",
      "properties": {
        "@id": "node/4227745921"
      },
      "geometry": {
        "type": "Point",
        "coordinates": [
          75.5741325,
          31.3238299
        ]
      },
      "id": "node/4227745921"
    },
    {
      "type": "Feature",
      "properties": {
        "@id": "node/4227745925"
      },
      "geometry": {
        "type": "Point",
        "coordinates": [
          75.573524,
          31.3239167
        ]
      },
      "id": "node/4227745925"
    },
    {
      "type": "Feature",
      "properties": {
        "@id": "node/4227745927"
      },
      "geometry": {
        "type": "Point",
        "coordinates": [
          75.5737453,
          31.3239442
        ]
      },
      "id": "node/4227745927"
    },
    {
      "type": "Feature",
      "properties": {
        "@id": "node/4227745941"
      },
      "geometry": {
        "type": "Point",
        "coordinates": [
          75.5737037,
          31.3243154
        ]
      },
      "id": "node/4227745941"
    },
    {
      "type": "Feature",
      "properties": {
        "@id": "node/4227745942"
      },
      "geometry": {
        "type": "Point",
        "coordinates": [
          75.5739035,
          31.3243325
        ]
      },
      "id": "node/4227745942"
    },
    {
      "type": "Feature",
      "properties": {
        "@id": "node/4227745951"
      },
      "geometry": {
        "type": "Point",
        "coordinates": [
          75.5733834,
          31.324687
        ]
      },
      "id": "node/4227745951"
    },
    {
      "type": "Feature",
      "properties": {
        "@id": "node/4227745954"
      },
      "geometry": {
        "type": "Point",
        "coordinates": [
          75.5740402,
          31.3247848
        ]
      },
      "id": "node/4227745954"
    },
    {
      "type": "Feature",
      "properties": {
        "@id": "node/4227745955"
      },
      "geometry": {
        "type": "Point",
        "coordinates": [
          75.5749174,
          31.3248217
        ]
      },
      "id": "node/4227745955"
    },
    {
      "type": "Feature",
      "properties": {
        "@id": "node/4227745956"
      },
      "geometry": {
        "type": "Point",
        "coordinates": [
          75.5729811,
          31.324801
        ]
      },
      "id": "node/4227745956"
    },
    {
      "type": "Feature",
      "properties": {
        "@id": "node/4227745957"
      },
      "geometry": {
        "type": "Point",
        "coordinates": [
          75.5738521,
          31.3248329
        ]
      },
      "id": "node/4227745957"
    },
    {
      "type": "Feature",
      "properties": {
        "@id": "node/4227745961"
      },
      "geometry": {
        "type": "Point",
        "coordinates": [
          75.5734747,
          31.3249594
        ]
      },
      "id": "node/4227745961"
    },
    {
      "type": "Feature",
      "properties": {
        "@id": "node/4228043091"
      },
      "geometry": {
        "type": "Point",
        "coordinates": [
          75.574978,
          31.3200632
        ]
      },
      "id": "node/4228043091"
    },
    {
      "type": "Feature",
      "properties": {
        "@id": "node/4228043092"
      },
      "geometry": {
        "type": "Point",
        "coordinates": [
          75.5746859,
          31.3204713
        ]
      },
      "id": "node/4228043092"
    },
    {
      "type": "Feature",
      "properties": {
        "@id": "node/4228043110"
      },
      "geometry": {
        "type": "Point",
        "coordinates": [
          75.5739225,
          31.3214288
        ]
      },
      "id": "node/4228043110"
    },
    {
      "type": "Feature",
      "properties": {
        "@id": "node/4228043117"
      },
      "geometry": {
        "type": "Point",
        "coordinates": [
          75.5740137,
          31.3216459
        ]
      },
      "id": "node/4228043117"
    },
    {
      "type": "Feature",
      "properties": {
        "@id": "node/4228043121"
      },
      "geometry": {
        "type": "Point",
        "coordinates": [
          75.5731152,
          31.3217061
        ]
      },
      "id": "node/4228043121"
    },
    {
      "type": "Feature",
      "properties": {
        "@id": "node/4228043123"
      },
      "geometry": {
        "type": "Point",
        "coordinates": [
          75.5748056,
          31.3219566
        ]
      },
      "id": "node/4228043123"
    },
    {
      "type": "Feature",
      "properties": {
        "@id": "node/4228043125"
      },
      "geometry": {
        "type": "Point",
        "coordinates": [
          75.5735863,
          31.3218194
        ]
      },
      "id": "node/4228043125"
    },
    {
      "type": "Feature",
      "properties": {
        "@id": "node/4228043131"
      },
      "geometry": {
        "type": "Point",
        "coordinates": [
          75.5744391,
          31.3218864
        ]
      },
      "id": "node/4228043131"
    },
    {
      "type": "Feature",
      "properties": {
        "@id": "node/4228043133"
      },
      "geometry": {
        "type": "Point",
        "coordinates": [
          75.573262,
          31.3219437
        ]
      },
      "id": "node/4228043133"
    },
    {
      "type": "Feature",
      "properties": {
        "@id": "node/4228043136"
      },
      "geometry": {
        "type": "Point",
        "coordinates": [
          75.574847,
          31.3220547
        ]
      },
      "id": "node/4228043136"
    },
    {
      "type": "Feature",
      "properties": {
        "@id": "node/4228043142"
      },
      "geometry": {
        "type": "Point",
        "coordinates": [
          75.5745962,
          31.3222208
        ]
      },
      "id": "node/4228043142"
    },
    {
      "type": "Feature",
      "properties": {
        "@id": "node/4228043149"
      },
      "geometry": {
        "type": "Point",
        "coordinates": [
          75.5749002,
          31.3221666
        ]
      },
      "id": "node/4228043149"
    },
    {
      "type": "Feature",
      "properties": {
        "@id": "node/4228043155"
      },
      "geometry": {
        "type": "Point",
        "coordinates": [
          75.5738756,
          31.3223236
        ]
      },
      "id": "node/4228043155"
    },
    {
      "type": "Feature",
      "properties": {
        "@id": "node/4228043156"
      },
      "geometry": {
        "type": "Point",
        "coordinates": [
          75.5746887,
          31.3223366
        ]
      },
      "id": "node/4228043156"
    },
    {
      "type": "Feature",
      "properties": {
        "@id": "node/4228043159"
      },
      "geometry": {
        "type": "Point",
        "coordinates": [
          75.5739299,
          31.3223986
        ]
      },
      "id": "node/4228043159"
    },
    {
      "type": "Feature",
      "properties": {
        "@id": "node/4228043166"
      },
      "geometry": {
        "type": "Point",
        "coordinates": [
          75.5735953,
          31.3224713
        ]
      },
      "id": "node/4228043166"
    },
    {
      "type": "Feature",
      "properties": {
        "@id": "node/4228043167"
      },
      "geometry": {
        "type": "Point",
        "coordinates": [
          75.5749944,
          31.3224866
        ]
      },
      "id": "node/4228043167"
    },
    {
      "type": "Feature",
      "properties": {
        "@id": "node/4228043169"
      },
      "geometry": {
        "type": "Point",
        "coordinates": [
          75.5736239,
          31.3225153
        ]
      },
      "id": "node/4228043169"
    },
    {
      "type": "Feature",
      "properties": {
        "@id": "node/4228043175"
      },
      "geometry": {
        "type": "Point",
        "coordinates": [
          75.5748734,
          31.3225596
        ]
      },
      "id": "node/4228043175"
    },
    {
      "type": "Feature",
      "properties": {
        "@id": "node/4228043184"
      },
      "geometry": {
        "type": "Point",
        "coordinates": [
          75.5746769,
          31.3226765
        ]
      },
      "id": "node/4228043184"
    },
    {
      "type": "Feature",
      "properties": {
        "@id": "node/4228043189"
      },
      "geometry": {
        "type": "Point",
        "coordinates": [
          75.5732274,
          31.3227463
        ]
      },
      "id": "node/4228043189"
    },
    {
      "type": "Feature",
      "properties": {
        "@id": "node/4228043197"
      },
      "geometry": {
        "type": "Point",
        "coordinates": [
          75.5745251,
          31.322804
        ]
      },
      "id": "node/4228043197"
    },
    {
      "type": "Feature",
      "properties": {
        "@id": "node/4228043228"
      },
      "geometry": {
        "type": "Point",
        "coordinates": [
          75.5749123,
          31.3233959
        ]
      },
      "id": "node/4228043228"
    },
    {
      "type": "Feature",
      "properties": {
        "@id": "node/4228043234"
      },
      "geometry": {
        "type": "Point",
        "coordinates": [
          75.5745126,
          31.3236113
        ]
      },
      "id": "node/4228043234"
    },
    {
      "type": "Feature",
      "properties": {
        "@id": "node/4228043287"
      },
      "geometry": {
        "type": "Point",
        "coordinates": [
          75.571707,
          31.3244568
        ]
      },
      "id": "node/4228043287"
    },
    {
      "type": "Feature",
      "properties": {
        "@id": "node/4228043300"
      },
      "geometry": {
        "type": "Point",
        "coordinates": [
          75.5713389,
          31.3246991
        ]
      },
      "id": "node/4228043300"
    },
    {
      "type": "Feature",
      "properties": {
        "@id": "node/4228043303"
      },
      "geometry": {
        "type": "Point",
        "coordinates": [
          75.5742256,
          31.3247374
        ]
      },
      "id": "node/4228043303"
    },
    {
      "type": "Feature",
      "properties": {
        "@id": "node/7051329411",
        "addr:district": "Jalandhar",
        "addr:full": "Shaheed Udham Singh Nagar Opp. T.V. Centre Jalandhar",
        "addr:postcode": "144001",
        "addr:state": "Punjab",
        "amenity": "hospital",
        "email": "info@dmchospital.com",
        "healthcare": "hospital",
        "name": "Dmc Hospital And Trauma Centre",
        "phone": "0181-2243800, 2237800",
        "source": "OpenGovernmentData",
        "website": "https://dmchospital.com/"
      },
      "geometry": {
        "type": "Point",
        "coordinates": [
          75.5701111,
          31.3211894
        ]
      },
      "id": "node/7051329411"
    },
    {
      "type": "Feature",
      "properties": {
        "@id": "node/7051329412"
      },
      "geometry": {
        "type": "Point",
        "coordinates": [
          75.5701239,
          31.3211513
        ]
      },
      "id": "node/7051329412"
    },
    {
      "type": "Feature",
      "properties": {
        "@id": "node/7051329413"
      },
      "geometry": {
        "type": "Point",
        "coordinates": [
          75.5701006,
          31.3213555
        ]
      },
      "id": "node/7051329413"
    },
    {
      "type": "Feature",
      "properties": {
        "@id": "node/7051329414"
      },
      "geometry": {
        "type": "Point",
        "coordinates": [
          75.5702149,
          31.3212001
        ]
      },
      "id": "node/7051329414"
    },
    {
      "type": "Feature",
      "properties": {
        "@id": "node/7051329416"
      },
      "geometry": {
        "type": "Point",
        "coordinates": [
          75.5701338,
          31.3211378
        ]
      },
      "id": "node/7051329416"
    },
    {
      "type": "Feature",
      "properties": {
        "@id": "node/7051329417"
      },
      "geometry": {
        "type": "Point",
        "coordinates": [
          75.5700099,
          31.3210713
        ]
      },
      "id": "node/7051329417"
    },
    {
      "type": "Feature",
      "properties": {
        "@id": "node/7063256375",
        "addr:district": "Jalandhar",
        "addr:full": "Near Nakodar Chowk",
        "addr:postcode": "144001",
        "addr:state": "Punjab",
        "amenity": "hospital",
        "contact:phone": "0181 223 0500",
        "healthcare": "hospital",
        "name": "Berry Hospital",
        "source": "OpenGovernmentData"
      },
      "geometry": {
        "type": "Point",
        "coordinates": [
          75.572741,
          31.320109
        ]
      },
      "id": "node/7063256375"
    },
    {
      "type": "Feature",
      "properties": {
        "@id": "node/7063256376"
      },
      "geometry": {
        "type": "Point",
        "coordinates": [
          75.5732612,
          31.3200527
        ]
      },
      "id": "node/7063256376"
    },
    {
      "type": "Feature",
      "properties": {
        "@id": "node/7063256378"
      },
      "geometry": {
        "type": "Point",
        "coordinates": [
          75.5723818,
          31.3201184
        ]
      },
      "id": "node/7063256378"
    },
    {
      "type": "Feature",
      "properties": {
        "@id": "node/7063256379"
      },
      "geometry": {
        "type": "Point",
        "coordinates": [
          75.5724196,
          31.3202415
        ]
      },
      "id": "node/7063256379"
    },
    {
      "type": "Feature",
      "properties": {
        "@id": "node/7068282253",
        "addr:district": "Jalandhar",
        "addr:full": "Opposite Radha Krishan Mandir Behind Lal Rattan Cinem",
        "addr:postcode": "144001",
        "addr:state": "Punjab",
        "amenity": "clinic",
        "contact:phone": "098140 22276",
        "healthcare": "clinic",
        "name": "Holy Family Nursing Home",
        "source": "OpenGovernmentData",
        "website": "https://www.parivaarivf.com/"
      },
      "geometry": {
        "type": "Point",
        "coordinates": [
          75.5708722,
          31.322557
        ]
      },
      "id": "node/7068282253"
    },
    {
      "type": "Feature",
      "properties": {
        "@id": "node/7068282254"
      },
      "geometry": {
        "type": "Point",
        "coordinates": [
          75.5706766,
          31.3226478
        ]
      },
      "id": "node/7068282254"
    },
    {
      "type": "Feature",
      "properties": {
        "@id": "node/7068282255"
      },
      "geometry": {
        "type": "Point",
        "coordinates": [
          75.5706554,
          31.3225269
        ]
      },
      "id": "node/7068282255"
    },
    {
      "type": "Feature",
      "properties": {
        "@id": "node/7068282256"
      },
      "geometry": {
        "type": "Point",
        "coordinates": [
          75.5709395,
          31.3224905
        ]
      },
      "id": "node/7068282256"
    },
    {
      "type": "Feature",
      "properties": {
        "@id": "node/7068282257"
      },
      "geometry": {
        "type": "Point",
        "coordinates": [
          75.5709607,
          31.3226114
        ]
      },
      "id": "node/7068282257"
    },
    {
      "type": "Feature",
      "properties": {
        "@id": "node/7079092917",
        "addr:district": "Jalandhar",
        "addr:full": "Jyoti Chowk, Kartar Market,Opposite Lovely Sweets",
        "addr:postcode": "144005",
        "addr:state": "Punjab",
        "amenity": "hospital",
        "contact:phone": "0181 245 5980",
        "healthcare": "hospital",
        "name": "Jagdeep Eye Hospital",
        "source": "OpenGovernmentData"
      },
      "geometry": {
        "type": "Point",
        "coordinates": [
          75.5743097,
          31.3236639
        ]
      },
      "id": "node/7079092917"
    },
    {
      "type": "Feature",
      "properties": {
        "@id": "node/7079092918"
      },
      "geometry": {
        "type": "Point",
        "coordinates": [
          75.5744207,
          31.3235181
        ]
      },
      "id": "node/7079092918"
    },
    {
      "type": "Feature",
      "properties": {
        "@id": "node/7079092919"
      },
      "geometry": {
        "type": "Point",
        "coordinates": [
          75.5744857,
          31.3235911
        ]
      },
      "id": "node/7079092919"
    },
    {
      "type": "Feature",
      "properties": {
        "@id": "node/7079092920"
      },
      "geometry": {
        "type": "Point",
        "coordinates": [
          75.5742751,
          31.3237281
        ]
      },
      "id": "node/7079092920"
    },
    {
      "type": "Feature",
      "properties": {
        "@id": "node/7079092921"
      },
      "geometry": {
        "type": "Point",
        "coordinates": [
          75.5742101,
          31.3236552
        ]
      },
      "id": "node/7079092921"
    },
    {
      "type": "Feature",
      "properties": {
        "@id": "node/7103863134",
        "addr:district": "Jalandhar",
        "addr:full": "111, Shaheed Udham Singh Nagar",
        "addr:postcode": "144001",
        "addr:state": "Punjab",
        "amenity": "hospital",
        "contact:phone": "0181 222 7608",
        "healthcare": "hospital",
        "name": "Mahajan Eye Hospital And Maternity Home (Lasik Laser Centre)",
        "source": "OpenGovernmentData"
      },
      "geometry": {
        "type": "Point",
        "coordinates": [
          75.5704182,
          31.3231255
        ]
      },
      "id": "node/7103863134"
    },
    {
      "type": "Feature",
      "properties": {
        "@id": "node/7103863135"
      },
      "geometry": {
        "type": "Point",
        "coordinates": [
          75.5703927,
          31.3232961
        ]
      },
      "id": "node/7103863135"
    },
    {
      "type": "Feature",
      "properties": {
        "@id": "node/7103863136"
      },
      "geometry": {
        "type": "Point",
        "coordinates": [
          75.5705138,
          31.3232825
        ]
      },
      "id": "node/7103863136"
    },
    {
      "type": "Feature",
      "properties": {
        "@id": "node/7103863137"
      },
      "geometry": {
        "type": "Point",
        "coordinates": [
          75.5704814,
          31.3230719
        ]
      },
      "id": "node/7103863137"
    },
    {
      "type": "Feature",
      "properties": {
        "@id": "node/7103863138"
      },
      "geometry": {
        "type": "Point",
        "coordinates": [
          75.5703603,
          31.3230855
        ]
      },
      "id": "node/7103863138"
    },
    {
      "type": "Feature",
      "properties": {
        "@id": "node/7866541976"
      },
      "geometry": {
        "type": "Point",
        "coordinates": [
          75.5716793,
          31.323664
        ]
      },
      "id": "node/7866541976"
    },
    {
      "type": "Feature",
      "properties": {
        "@id": "node/7866541977"
      },
      "geometry": {
        "type": "Point",
        "coordinates": [
          75.5718536,
          31.3236033
        ]
      },
      "id": "node/7866541977"
    },
    {
      "type": "Feature",
      "properties": {
        "@id": "node/7866541978"
      },
      "geometry": {
        "type": "Point",
        "coordinates": [
          75.5718881,
          31.3236755
        ]
      },
      "id": "node/7866541978"
    },
    {
      "type": "Feature",
      "properties": {
        "@id": "node/7866541979"
      },
      "geometry": {
        "type": "Point",
        "coordinates": [
          75.5717137,
          31.3237362
        ]
      },
      "id": "node/7866541979"
    },
    {
      "type": "Feature",
      "properties": {
        "@id": "node/7866541980"
      },
      "geometry": {
        "type": "Point",
        "coordinates": [
          75.5722197,
          31.323348
        ]
      },
      "id": "node/7866541980"
    },
    {
      "type": "Feature",
      "properties": {
        "@id": "node/7866541981"
      },
      "geometry": {
        "type": "Point",
        "coordinates": [
          75.5721728,
          31.3231761
        ]
      },
      "id": "node/7866541981"
    },
    {
      "type": "Feature",
      "properties": {
        "@id": "node/7866541982"
      },
      "geometry": {
        "type": "Point",
        "coordinates": [
          75.5720356,
          31.3232035
        ]
      },
      "id": "node/7866541982"
    },
    {
      "type": "Feature",
      "properties": {
        "@id": "node/7866541983"
      },
      "geometry": {
        "type": "Point",
        "coordinates": [
          75.5720825,
          31.3233753
        ]
      },
      "id": "node/7866541983"
    },
    {
      "type": "Feature",
      "properties": {
        "@id": "node/7866605308"
      },
      "geometry": {
        "type": "Point",
        "coordinates": [
          75.5708578,
          31.3231965
        ]
      },
      "id": "node/7866605308"
    },
    {
      "type": "Feature",
      "properties": {
        "@id": "node/7866605309"
      },
      "geometry": {
        "type": "Point",
        "coordinates": [
          75.5710845,
          31.3231805
        ]
      },
      "id": "node/7866605309"
    },
    {
      "type": "Feature",
      "properties": {
        "@id": "node/7866605310"
      },
      "geometry": {
        "type": "Point",
        "coordinates": [
          75.5710942,
          31.3232802
        ]
      },
      "id": "node/7866605310"
    },
    {
      "type": "Feature",
      "properties": {
        "@id": "node/7866605311"
      },
      "geometry": {
        "type": "Point",
        "coordinates": [
          75.5708675,
          31.3232962
        ]
      },
      "id": "node/7866605311"
    },
    {
      "type": "Feature",
      "properties": {
        "@id": "node/7866605364"
      },
      "geometry": {
        "type": "Point",
        "coordinates": [
          75.5745595,
          31.3241792
        ]
      },
      "id": "node/7866605364"
    },
    {
      "type": "Feature",
      "properties": {
        "@id": "node/7866605365"
      },
      "geometry": {
        "type": "Point",
        "coordinates": [
          75.5747419,
          31.3240899
        ]
      },
      "id": "node/7866605365"
    },
    {
      "type": "Feature",
      "properties": {
        "@id": "node/7866605366"
      },
      "geometry": {
        "type": "Point",
        "coordinates": [
          75.5748144,
          31.3241979
        ]
      },
      "id": "node/7866605366"
    },
    {
      "type": "Feature",
      "properties": {
        "@id": "node/7866605367"
      },
      "geometry": {
        "type": "Point",
        "coordinates": [
          75.574632,
          31.3242872
        ]
      },
      "id": "node/7866605367"
    },
    {
      "type": "Feature",
      "properties": {
        "@id": "node/7866605368"
      },
      "geometry": {
        "type": "Point",
        "coordinates": [
          75.5719073,
          31.3202994
        ]
      },
      "id": "node/7866605368"
    },
    {
      "type": "Feature",
      "properties": {
        "@id": "node/7866605369"
      },
      "geometry": {
        "type": "Point",
        "coordinates": [
          75.5718094,
          31.320107
        ]
      },
      "id": "node/7866605369"
    },
    {
      "type": "Feature",
      "properties": {
        "@id": "node/7866605370"
      },
      "geometry": {
        "type": "Point",
        "coordinates": [
          75.5717204,
          31.32014
        ]
      },
      "id": "node/7866605370"
    },
    {
      "type": "Feature",
      "properties": {
        "@id": "node/7866605371"
      },
      "geometry": {
        "type": "Point",
        "coordinates": [
          75.5718184,
          31.3203324
        ]
      },
      "id": "node/7866605371"
    },
    {
      "type": "Feature",
      "properties": {
        "@id": "node/7866605416"
      },
      "geometry": {
        "type": "Point",
        "coordinates": [
          75.5706657,
          31.3229573
        ]
      },
      "id": "node/7866605416"
    },
    {
      "type": "Feature",
      "properties": {
        "@id": "node/7866605417"
      },
      "geometry": {
        "type": "Point",
        "coordinates": [
          75.5706375,
          31.3226973
        ]
      },
      "id": "node/7866605417"
    },
    {
      "type": "Feature",
      "properties": {
        "@id": "node/7866605418"
      },
      "geometry": {
        "type": "Point",
        "coordinates": [
          75.5703498,
          31.32272
        ]
      },
      "id": "node/7866605418"
    },
    {
      "type": "Feature",
      "properties": {
        "@id": "node/7866605419"
      },
      "geometry": {
        "type": "Point",
        "coordinates": [
          75.570378,
          31.3229801
        ]
      },
      "id": "node/7866605419"
    },
    {
      "type": "Feature",
      "properties": {
        "@id": "node/7866605606",
        "addr:district": "Jalandhar",
        "addr:postcode": "144001",
        "addr:state": "Punjab",
        "amenity": "dentist",
        "healthcare": "dentist",
        "name": "Aggarwal Dental Clinic",
        "source": "Local Knowledge"
      },
      "geometry": {
        "type": "Point",
        "coordinates": [
          75.572128,
          31.323274
        ]
      },
      "id": "node/7866605606"
    },
    {
      "type": "Feature",
      "properties": {
        "@id": "node/7866605631",
        "addr:district": "Jalandhar",
        "addr:full": "Jyothi Chowk",
        "addr:postcode": "144006",
        "addr:state": "Punjab",
        "amenity": "hospital",
        "healthcare": "hospital",
        "name": "Amar Hospital",
        "source": "Local Knowledge"
      },
      "geometry": {
        "type": "Point",
        "coordinates": [
          75.574654,
          31.324162
        ]
      },
      "id": "node/7866605631"
    },
    {
      "type": "Feature",
      "properties": {
        "@id": "node/7866605642",
        "addr:district": "Jalandhar",
        "addr:full": "Jalandhar",
        "addr:postcode": "144001",
        "addr:state": "Punjab",
        "amenity": "doctors",
        "healthcare": "doctor",
        "name": "Dr. Mukesh Khurana",
        "source": "Local Knowledge"
      },
      "geometry": {
        "type": "Point",
        "coordinates": [
          75.5717506,
          31.3236751
        ]
      },
      "id": "node/7866605642"
    },
    {
      "type": "Feature",
      "properties": {
        "@id": "node/7866605662",
        "addr:district": "Jalandhar",
        "addr:postcode": "144001",
        "addr:state": "Punjab",
        "amenity": "clinic",
        "healthcare": "clinic",
        "name": "Aneja Skin Clinic",
        "source": "Local Knowledge"
      },
      "geometry": {
        "type": "Point",
        "coordinates": [
          75.5718327,
          31.3202473
        ]
      },
      "id": "node/7866605662"
    },
    {
      "type": "Feature",
      "properties": {
        "@id": "node/7866605674",
        "addr:city": "jalandhar",
        "addr:district": "Jalandhar",
        "addr:full": "Shaheed Udham Singh Nagar",
        "addr:housenumber": "73",
        "addr:postcode": "144001",
        "addr:state": "Punjab",
        "addr:street": "Shaheed Udham Singh Nagar",
        "contact:facebook": "innocentheartseyecentre",
        "description": "IHEC is the top rated eye hospital in Jalandhar. We offer best eye care treatments in Jalandhar, Punjab. Our treatments include Cataract Surgery ( मोतियाबिंद ), Photorefractive keratectomy (PRK), Glaucoma, LASIK, specs removal, ICL, SMILE Pro.",
        "email": "infoihec@ihgi.co.in",
        "healthcare": "doctor",
        "healthcare:speciality": "ophthalmology",
        "level": "2;3",
        "mobile": "9875969672",
        "name": "Innocent Hearts Eye Centre",
        "source": "Local Knowledge",
        "website": "https://innocentheartseyecentre.com/"
      },
      "geometry": {
        "type": "Point",
        "coordinates": [
          75.570535,
          31.322839
        ]
      },
      "id": "node/7866605674"
    },
    {
      "type": "Feature",
      "properties": {
        "@id": "node/7866605690",
        "addr:district": "Jalandhar",
        "addr:full": "Shaheed Udham Singh Nagar",
        "addr:postcode": "144001",
        "addr:state": "Punjab",
        "amenity": "hospital",
        "healthcare": "hospital",
        "name": "Malhotra ENT Hospital",
        "source": "Local Knowledge"
      },
      "geometry": {
        "type": "Point",
        "coordinates": [
          75.571044,
          31.323243
        ]
      },
      "id": "node/7866605690"
    },
    {
      "type": "Feature",
      "properties": {
        "@id": "node/9192043892"
      },
      "geometry": {
        "type": "Point",
        "coordinates": [
          75.5740332,
          31.3229437
        ]
      },
      "id": "node/9192043892"
    },
    {
      "type": "Feature",
      "properties": {
        "@id": "node/9192043893"
      },
      "geometry": {
        "type": "Point",
        "coordinates": [
          75.5743356,
          31.323373
        ]
      },
      "id": "node/9192043893"
    },
    {
      "type": "Feature",
      "properties": {
        "@id": "node/10089791709"
      },
      "geometry": {
        "type": "Point",
        "coordinates": [
          75.5731741,
          31.3226697
        ]
      },
      "id": "node/10089791709"
    },
    {
      "type": "Feature",
      "properties": {
        "@id": "node/10089791710"
      },
      "geometry": {
        "type": "Point",
        "coordinates": [
          75.572513,
          31.3229136
        ]
      },
      "id": "node/10089791710"
    },
    {
      "type": "Feature",
      "properties": {
        "@id": "node/10089791711"
      },
      "geometry": {
        "type": "Point",
        "coordinates": [
          75.5724758,
          31.3228177
        ]
      },
      "id": "node/10089791711"
    },
    {
      "type": "Feature",
      "properties": {
        "@id": "node/10171191532"
      },
      "geometry": {
        "type": "Point",
        "coordinates": [
          75.5738291,
          31.3234508
        ]
      },
      "id": "node/10171191532"
    },
    {
      "type": "Feature",
      "properties": {
        "@id": "node/10224792837"
      },
      "geometry": {
        "type": "Point",
        "coordinates": [
          75.572088,
          31.3234358
        ]
      },
      "id": "node/10224792837"
    },
    {
      "type": "Feature",
      "properties": {
        "@id": "node/10224792838"
      },
      "geometry": {
        "type": "Point",
        "coordinates": [
          75.5717528,
          31.3234688
        ]
      },
      "id": "node/10224792838"
    },
    {
      "type": "Feature",
      "properties": {
        "@id": "node/10224845944"
      },
      "geometry": {
        "type": "Point",
        "coordinates": [
          75.5742672,
          31.3210757
        ]
      },
      "id": "node/10224845944"
    },
    {
      "type": "Feature",
      "properties": {
        "@id": "node/10224845945"
      },
      "geometry": {
        "type": "Point",
        "coordinates": [
          75.5741613,
          31.3210897
        ]
      },
      "id": "node/10224845945"
    },
    {
      "type": "Feature",
      "properties": {
        "@id": "node/10224845948"
      },
      "geometry": {
        "type": "Point",
        "coordinates": [
          75.5739903,
          31.322496
        ]
      },
      "id": "node/10224845948"
    },
    {
      "type": "Feature",
      "properties": {
        "@id": "node/10224845949"
      },
      "geometry": {
        "type": "Point",
        "coordinates": [
          75.5730763,
          31.3216603
        ]
      },
      "id": "node/10224845949"
    },
    {
      "type": "Feature",
      "properties": {
        "@id": "node/10224845950"
      },
      "geometry": {
        "type": "Point",
        "coordinates": [
          75.5730572,
          31.321654
        ]
      },
      "id": "node/10224845950"
    },
    {
      "type": "Feature",
      "properties": {
        "@id": "node/10224845951"
      },
      "geometry": {
        "type": "Point",
        "coordinates": [
          75.5730341,
          31.3216545
        ]
      },
      "id": "node/10224845951"
    },
    {
      "type": "Feature",
      "properties": {
        "@id": "node/10224845952"
      },
      "geometry": {
        "type": "Point",
        "coordinates": [
          75.574166,
          31.3228875
        ]
      },
      "id": "node/10224845952"
    },
    {
      "type": "Feature",
      "properties": {
        "@id": "node/10224845953"
      },
      "geometry": {
        "type": "Point",
        "coordinates": [
          75.5741706,
          31.3228583
        ]
      },
      "id": "node/10224845953"
    },
    {
      "type": "Feature",
      "properties": {
        "@id": "node/10224845954"
      },
      "geometry": {
        "type": "Point",
        "coordinates": [
          75.574172,
          31.3228758
        ]
      },
      "id": "node/10224845954"
    },
    {
      "type": "Feature",
      "properties": {
        "@id": "node/10224845955"
      },
      "geometry": {
        "type": "Point",
        "coordinates": [
          75.5745196,
          31.3221041
        ]
      },
      "id": "node/10224845955"
    },
    {
      "type": "Feature",
      "properties": {
        "@id": "node/10224845956"
      },
      "geometry": {
        "type": "Point",
        "coordinates": [
          75.574693,
          31.321826
        ]
      },
      "id": "node/10224845956"
    },
    {
      "type": "Feature",
      "properties": {
        "@id": "node/10224845977"
      },
      "geometry": {
        "type": "Point",
        "coordinates": [
          75.5749954,
          31.3202282
        ]
      },
      "id": "node/10224845977"
    },
    {
      "type": "Feature",
      "properties": {
        "@id": "node/10224887412"
      },
      "geometry": {
        "type": "Point",
        "coordinates": [
          75.573657,
          31.3235259
        ]
      },
      "id": "node/10224887412"
    },
    {
      "type": "Feature",
      "properties": {
        "@id": "node/10224887413"
      },
      "geometry": {
        "type": "Point",
        "coordinates": [
          75.5736952,
          31.3235133
        ]
      },
      "id": "node/10224887413"
    },
    {
      "type": "Feature",
      "properties": {
        "@id": "node/10224887414"
      },
      "geometry": {
        "type": "Point",
        "coordinates": [
          75.5736288,
          31.3235322
        ]
      },
      "id": "node/10224887414"
    },
    {
      "type": "Feature",
      "properties": {
        "@id": "node/10224887415"
      },
      "geometry": {
        "type": "Point",
        "coordinates": [
          75.5735739,
          31.3235351
        ]
      },
      "id": "node/10224887415"
    },
    {
      "type": "Feature",
      "properties": {
        "@id": "node/10224887416"
      },
      "geometry": {
        "type": "Point",
        "coordinates": [
          75.5714871,
          31.3249832
        ]
      },
      "id": "node/10224887416"
    },
    {
      "type": "Feature",
      "properties": {
        "@id": "node/10224897819"
      },
      "geometry": {
        "type": "Point",
        "coordinates": [
          75.5713684,
          31.3246412
        ]
      },
      "id": "node/10224897819"
    },
    {
      "type": "Feature",
      "properties": {
        "@id": "node/10224897820"
      },
      "geometry": {
        "type": "Point",
        "coordinates": [
          75.5713503,
          31.3246573
        ]
      },
      "id": "node/10224897820"
    },
    {
      "type": "Feature",
      "properties": {
        "@id": "node/10224897821"
      },
      "geometry": {
        "type": "Point",
        "coordinates": [
          75.5713389,
          31.3246744
        ]
      },
      "id": "node/10224897821"
    },
    {
      "type": "Feature",
      "properties": {
        "@id": "node/10224897834"
      },
      "geometry": {
        "type": "Point",
        "coordinates": [
          75.5724683,
          31.3228101
        ]
      },
      "id": "node/10224897834"
    },
    {
      "type": "Feature",
      "properties": {
        "@id": "node/10224897835"
      },
      "geometry": {
        "type": "Point",
        "coordinates": [
          75.5724555,
          31.3228056
        ]
      },
      "id": "node/10224897835"
    },
    {
      "type": "Feature",
      "properties": {
        "@id": "node/10224897836"
      },
      "geometry": {
        "type": "Point",
        "coordinates": [
          75.5724299,
          31.3228029
        ]
      },
      "id": "node/10224897836"
    },
    {
      "type": "Feature",
      "properties": {
        "@id": "node/10224897837"
      },
      "geometry": {
        "type": "Point",
        "coordinates": [
          75.572392,
          31.3228053
        ]
      },
      "id": "node/10224897837"
    },
    {
      "type": "Feature",
      "properties": {
        "@id": "node/10224897838"
      },
      "geometry": {
        "type": "Point",
        "coordinates": [
          75.5714499,
          31.3223305
        ]
      },
      "id": "node/10224897838"
    },
    {
      "type": "Feature",
      "properties": {
        "@id": "node/10224897839"
      },
      "geometry": {
        "type": "Point",
        "coordinates": [
          75.5714442,
          31.3223571
        ]
      },
      "id": "node/10224897839"
    },
    {
      "type": "Feature",
      "properties": {
        "@id": "node/10224897840"
      },
      "geometry": {
        "type": "Point",
        "coordinates": [
          75.5714345,
          31.3223789
        ]
      },
      "id": "node/10224897840"
    },
    {
      "type": "Feature",
      "properties": {
        "@id": "node/10224897841"
      },
      "geometry": {
        "type": "Point",
        "coordinates": [
          75.5708467,
          31.3205518
        ]
      },
      "id": "node/10224897841"
    },
    {
      "type": "Feature",
      "properties": {
        "@id": "node/10224897842"
      },
      "geometry": {
        "type": "Point",
        "coordinates": [
          75.57072,
          31.3206217
        ]
      },
      "id": "node/10224897842"
    },
    {
      "type": "Feature",
      "properties": {
        "@id": "node/10224897843"
      },
      "geometry": {
        "type": "Point",
        "coordinates": [
          75.5712873,
          31.3211075
        ]
      },
      "id": "node/10224897843"
    },
    {
      "type": "Feature",
      "properties": {
        "@id": "node/10224897844"
      },
      "geometry": {
        "type": "Point",
        "coordinates": [
          75.5708804,
          31.3216737
        ]
      },
      "id": "node/10224897844"
    },
    {
      "type": "Feature",
      "properties": {
        "@id": "node/10224897845"
      },
      "geometry": {
        "type": "Point",
        "coordinates": [
          75.5710747,
          31.3215765
        ]
      },
      "id": "node/10224897845"
    },
    {
      "type": "Feature",
      "properties": {
        "@id": "node/10224897846"
      },
      "geometry": {
        "type": "Point",
        "coordinates": [
          75.5711213,
          31.3215766
        ]
      },
      "id": "node/10224897846"
    },
    {
      "type": "Feature",
      "properties": {
        "@id": "node/10224897852"
      },
      "geometry": {
        "type": "Point",
        "coordinates": [
          75.5732681,
          31.3212673
        ]
      },
      "id": "node/10224897852"
    },
    {
      "type": "Feature",
      "properties": {
        "@id": "node/10224897853"
      },
      "geometry": {
        "type": "Point",
        "coordinates": [
          75.5737968,
          31.3210936
        ]
      },
      "id": "node/10224897853"
    },
    {
      "type": "Feature",
      "properties": {
        "@id": "node/10224897854"
      },
      "geometry": {
        "type": "Point",
        "coordinates": [
          75.5730441,
          31.3201829
        ]
      },
      "id": "node/10224897854"
    },
    {
      "type": "Feature",
      "properties": {
        "@id": "node/10225168202"
      },
      "geometry": {
        "type": "Point",
        "coordinates": [
          75.5725709,
          31.3229271
        ]
      },
      "id": "node/10225168202"
    },
    {
      "type": "Feature",
      "properties": {
        "@id": "node/10225168203"
      },
      "geometry": {
        "type": "Point",
        "coordinates": [
          75.5725509,
          31.3229302
        ]
      },
      "id": "node/10225168203"
    },
    {
      "type": "Feature",
      "properties": {
        "@id": "node/10225168204"
      },
      "geometry": {
        "type": "Point",
        "coordinates": [
          75.5725384,
          31.3229299
        ]
      },
      "id": "node/10225168204"
    },
    {
      "type": "Feature",
      "properties": {
        "@id": "node/10225168205"
      },
      "geometry": {
        "type": "Point",
        "coordinates": [
          75.5725263,
          31.3229253
        ]
      },
      "id": "node/10225168205"
    },
    {
      "type": "Feature",
      "properties": {
        "@id": "node/10225387218"
      },
      "geometry": {
        "type": "Point",
        "coordinates": [
          75.5701137,
          31.3218897
        ]
      },
      "id": "node/10225387218"
    },
    {
      "type": "Feature",
      "properties": {
        "@id": "node/10225387219"
      },
      "geometry": {
        "type": "Point",
        "coordinates": [
          75.570288,
          31.3203013
        ]
      },
      "id": "node/10225387219"
    },
    {
      "type": "Feature",
      "properties": {
        "@id": "node/10225387220"
      },
      "geometry": {
        "type": "Point",
        "coordinates": [
          75.5706708,
          31.3206607
        ]
      },
      "id": "node/10225387220"
    },
    {
      "type": "Feature",
      "properties": {
        "@id": "node/10225387221"
      },
      "geometry": {
        "type": "Point",
        "coordinates": [
          75.5703926,
          31.3202246
        ]
      },
      "id": "node/10225387221"
    },
    {
      "type": "Feature",
      "properties": {
        "@id": "node/10584112886"
      },
      "geometry": {
        "type": "Point",
        "coordinates": [
          75.5712655,
          31.3245307
        ]
      },
      "id": "node/10584112886"
    },
    {
      "type": "Feature",
      "properties": {
        "@id": "node/13575310889"
      },
      "geometry": {
        "type": "Point",
        "coordinates": [
          75.5723367,
          31.3217007
        ]
      },
      "id": "node/13575310889"
    }
  ]
}